{"fetched_at":"2026-03-29T16:36:15Z","count":15609,"tles":[{"name":"STARLINK-35111","line1":"1 65463U 25195F   26087.60568623  .00027043  00000+0  92165-3 0  9996","line2":"2 65463  53.1582 170.0479 0001494  38.9748 321.1361 15.30206829 32890","category":"Starlink"}]}